OBJECT C                
1 57582U 23117C   24181.19129004  .00010520  00000+0  54663-3 0  9997
2 57582  97.4861 253.0865 0009408 247.7510 112.2725 15.16233704 49005
